TIANMU-1 07             
1 57399U 23101A   26065.57454230  .00008352  00000+0  29795-3 0  9991
2 57399  97.2728 118.5929 0004609 142.4105 217.7458 15.29118809145964
STARLINK-31712          
1 59491U 24071H   26068.16595226 -.00003547  00000+0 -11947-3 0  9995
2 59491  42.9962 354.1129 0000836  63.8061 296.2877 15.27576127107998
